STARLINK-3714           
1 52094U 22029G   24110.84647267  .00005589  00000+0  36909-3 0  9993
2 52094  53.2165 301.4655 0000942  75.7557 284.3540 15.08827758116666
STARLINK-3701           
1 52095U 22029H   24110.83541819  .00008194  00000+0  53206-3 0  9993
2 52095  53.2171 301.5086 0001286  64.0507 296.0618 15.08858129116663
STARLINK-3717           
1 52096U 22029J   24110.81426097  .00012043  00000+0  77300-3 0  9991
2 52096  53.2166 291.6052 0001266  89.2338 270.8800 15.08861000116787
STARLINK-3665           
1 52098U 22029L   24110.83911254  .00007352  00000+0  47947-3 0  9990
2 52098  53.2161 301.4911 0001432  94.6472 265.4683 15.08846015116667
STARLINK-3702           
1 52100U 22029N   24110.83173988  .00009367  00000+0  60554-3 0  9995
2 52100  53.2176 301.5236 0001274  94.5060 265.6077 15.08858809116667
STARLINK-3703           
1 52101U 22029P   24110.84280677  .00011906  00000+0  76441-3 0  9995
2 52101  53.2159 301.6682 0001441  85.4310 274.6847 15.08861297116657
STARLINK-3709           
1 52102U 22029Q   24110.76738123  .00005933  00000+0  39048-3 0  9996
2 52102  53.2168 291.8137 0001534  81.1460 278.9706 15.08845125116782
STARLINK-3705           
1 52103U 22029R   24110.74066013  .00002105  00000+0  15034-3 0  9994
2 52103  53.2184 291.9333 0001484 111.9599 248.1551 15.08839681116775
STARLINK-3706           
1 52105U 22029T   24110.53554336  .00001389  00000+0  10535-3 0  9997
2 52105  53.2175 292.8517 0001406  75.3961 284.7187 15.08834229116742
STARLINK-3670           
1 52106U 22029U   24110.55574442  .00007852  00000+0  51067-3 0  9996
2 52106  53.2177 302.7592 0001510  96.2212 263.8952 15.08853103116612
STARLINK-3658           
1 52107U 22029V   24110.53090460  .00001365  00000+0  10384-3 0  9998
2 52107  53.2191 292.8702 0001370 104.6740 255.4404 15.08834410116748
STARLINK-3698           
1 52108U 22029W   24110.86945894  .00009222  00000+0  59646-3 0  9999
2 52108  53.2184 291.3564 0001444  98.0467 262.0689 15.08859311116796
STARLINK-3687           
1 52110U 22029Y   24110.53457285  .00005489  00000+0  36264-3 0  9990
2 52110  53.2179 292.8554 0001432 116.8787 243.2352 15.08845228116744
STARLINK-3708           
1 52111U 22029Z   24110.78482022  .00006903  00000+0  45122-3 0  9990
2 52111  53.2185 291.7354 0001518 116.5424 243.5724 15.08853649116784
STARLINK-3734           
1 52112U 22029AA  24110.52721430  .00016139  00000+0  10288-2 0  9998
2 52112  53.2166 292.8865 0001396  99.7026 260.4124 15.08875510116746
STARLINK-3736           
1 52113U 22029AB  24109.78386361  .00001262  00000+0  97372-4 0  9997
2 52113  53.2177 296.2319 0001634  73.6266 286.4906 15.08842595116634
STARLINK-3737           
1 52114U 22029AC  24110.52353840 -.00004072  00000+0 -23781-3 0  9994
2 52114  53.2178 292.9008 0001563  94.7597 265.3574 15.08849326116744
STARLINK-3685           
1 52115U 22029AD  24110.50514211  .00002435  00000+0  17101-3 0  9992
2 52115  53.2164 292.9920 0001428  89.8604 270.2552 15.08838331116742
STARLINK-3735           
1 52116U 22029AE  24110.71490517  .00004890  00000+0  32505-3 0  9990
2 52116  53.2163 292.0467 0001730  93.9404 266.1786 15.08845822116778
STARLINK-3738           
1 52117U 22029AF  24110.49779044  .00008237  00000+0  53496-3 0  9992
2 52117  53.2164 293.0274 0001447  61.3092 298.8046 15.08842411116754
STARLINK-3743           
1 52118U 22029AG  24109.78018381 -.00000721  00000+0 -27194-4 0  9992
2 52118  53.2164 296.2521 0001792  56.2171 303.8992 15.08842423116636
STARLINK-3558           
1 52119U 22029AH  24109.89426366  .00006507  00000+0  42644-3 0  9993
2 52119  53.2165 295.7381 0001494 100.4840 259.6321 15.08848157116656
STARLINK-3534           
1 52120U 22029AJ  24110.50146071  .00004286  00000+0  28725-3 0  9993
2 52120  53.2173 293.0103 0001248  38.1815 321.9265 15.08832593116754
STARLINK-3678           
1 52121U 22029AK  24110.87037827  .00005486  00000+0  36242-3 0  9998
2 52121  53.2163 281.3478 0001390  90.2849 269.8302 15.08850514116938
STARLINK-3726           
1 52122U 22029AL  24110.49410276  .00009782  00000+0  63161-3 0  9993
2 52122  53.2164 293.0415 0001395  83.4006 276.7145 15.08854797116743
STARLINK-3725           
1 52123U 22029AM  24110.85660589  .00005527  00000+0  36496-3 0  9992
2 52123  53.2180 281.3425 0001501  88.5008 271.6156 15.08853209116945
STARLINK-3684           
1 52124U 22029AN  24110.88418207  .00002371  00000+0  16702-3 0  9996
2 52124  53.2179 291.2860 0001400  87.7280 272.3872 15.08841702116801
STARLINK-3727           
1 52125U 22029AP  24110.79309847  .00006122  00000+0  40218-3 0  9993
2 52125  53.2172 281.6973 0001604  83.1176 276.9999 15.08857701116933
STARLINK-3732           
1 52126U 22029AQ  24110.86670303  .00010175  00000+0  65607-3 0  9992
2 52126  53.2165 281.3687 0001472  89.2791 270.8370 15.08860204116936
STARLINK-3715           
1 52127U 22029AR  24110.85565725  .00001898  00000+0  13727-3 0  9991
2 52127  53.2169 281.4170 0001470  73.9214 286.1940 15.08848285116935
STARLINK-3661           
1 52129U 22029AT  24110.78206693  .00004306  00000+0  28843-3 0  9993
2 52129  53.2179 281.7484 0001286  83.9547 276.1592 15.08841597116935
STARLINK-3711           
1 52131U 22029AV  24110.84459092  .00016934  00000+0  10776-2 0  9991
2 52131  53.2163 281.4628 0001294  78.1331 281.9806 15.08903938116945
STARLINK-3718           
1 52132U 22029AW  24110.85197985  .00009081  00000+0  58757-3 0  9990
2 52132  53.2166 281.4305 0001115  91.9537 268.1582 15.08859697116944
STARLINK-3707           
1 52133U 22029AX  24110.50606072  .00001477  00000+0  11088-3 0  9992
2 52133  53.2188 282.9912 0001381  98.1837 261.9311 15.08844464116897
STARLINK-3721           
1 52134U 22029AY  24110.50974203  .00004516  00000+0  30181-3 0  9999
2 52134  53.2178 282.9639 0001444  86.5003 273.6154 15.08822467116893
STARLINK-3729           
1 52135U 22029AZ  24110.49598519  .00005095  00000+0  33799-3 0  9991
2 52135  53.2173 283.0409 0001506  90.1459 269.9706 15.08839693116891
STARLINK-3720           
1 52136U 22029BA  24110.50238220  .00002826  00000+0  19555-3 0  9997
2 52136  53.2179 283.0018 0001507 100.1104 260.0058 15.08840496116899
STARLINK-3733           
1 52137U 22029BB  24110.62382470  .00007719  00000+0  50237-3 0  9996
2 52137  53.2165 282.4575 0001577  94.3733 265.7440 15.08852613116919
STARLINK-3723           
1 52138U 22029BC  24110.49870358  .00004420  00000+0  29565-3 0  9995
2 52138  53.2190 283.0180 0001455 102.9205 257.1950 15.08835436116894
STARLINK-3730           
1 52139U 22029BD  24110.47938033  .00003560  00000+0  24161-3 0  9990
2 52139  53.2178 293.1039 0001581 117.5658 242.5495 15.08843459116740
STARLINK-3682           
1 52140U 22029BE  24110.62014016  .00007099  00000+0  46347-3 0  9996
2 52140  53.2165 282.4702 0001400  90.0151 270.1001 15.08855999116910
STARLINK-3810           
1 52261U 22041A   24110.81614017  .00002849  00000+0  19701-3 0  9994
2 52261  53.2176 321.6032 0001208  89.4645 270.6485 15.08842708111587
STARLINK-3761           
1 52262U 22041B   24110.88141859  .00010764  00000+0  69302-3 0  9998
2 52262  53.2178 321.2531 0001827 104.0070 256.1126 15.08858557111594
STARLINK-3786           
1 52263U 22041C   24110.81887112  .00004492  00000+0  30012-3 0  9998
2 52263  53.2175 321.5816 0001306  98.8888 261.2252 15.08840444111571
STARLINK-3795           
1 52264U 22041D   24110.01662227  .00001381  00000+0  10485-3 0  9995
2 52264  53.2176 325.1836 0001222 104.3558 255.7570 15.08840135110240
STARLINK-3740           
1 52265U 22041E   24110.60910497  .00004792  00000+0  31896-3 0  9994
2 52265  53.2182 322.5261 0001838  96.1584 263.9617 15.08843623110339
STARLINK-3739           
1 52266U 22041F   24110.87037844  .00005416  00000+0  35801-3 0  9994
2 52266  53.2188 321.3455 0001727  86.4548 273.6641 15.08851236111602
STARLINK-3748           
1 52267U 22041G   24110.00558277  .00003240  00000+0  22153-3 0  9997
2 52267  53.2186 325.2333 0001134  90.8629 269.2494 15.08840167110247
STARLINK-3746           
1 52268U 22041H   24110.84829521  .00005120  00000+0  33961-3 0  9991
2 52268  53.2186 321.3681 0001757  93.6363 266.4830 15.08834532111599
STARLINK-3791           
1 52269U 22041J   24110.86302034  .00006699  00000+0  43845-3 0  9993
2 52269  53.2187 321.3752 0001463  99.8376 260.2782 15.08852360111593
STARLINK-3804           
1 52270U 22041K   24110.85566218  .00005334  00000+0  35284-3 0  9993
2 52270  53.2192 321.4449 0001579  88.6246 271.4927 15.08854567111580
STARLINK-3788           
1 52271U 22041L   24110.85934353  .00010854  00000+0  69865-3 0  9998
2 52271  53.2178 321.3968 0001391  89.9328 270.1824 15.08857558111593
STARLINK-3781           
1 52272U 22041M   24110.58799085  .00009282  00000+0  60031-3 0  9999
2 52272  53.2162 322.6583 0001534  75.4850 284.6312 15.08851157110335
STARLINK-3782           
1 52273U 22041N   24110.55950755  .00003710  00000+0  25108-3 0  9996
2 52273  53.2178 313.1307 0001798  58.6165 301.5003 15.08838896111686
STARLINK-3790           
1 52274U 22041P   24110.84462068  .00007712  00000+0  50193-3 0  9992
2 52274  53.2170 321.4668 0001668  99.6445 260.4735 15.08851795111591
STARLINK-3784           
1 52275U 22041Q   24110.85197108  .00022309  00000+0  14134-2 0  9997
2 52275  53.2180 321.4244 0001422 111.4678 248.6466 15.08890423111581
STARLINK-3778           
1 52276U 22041R   24110.84094926  .00006520  00000+0  42735-3 0  9997
2 52276  53.2173 321.4844 0001656  84.9384 275.1797 15.08841218111598
STARLINK-3780           
1 52278U 22041T   24110.83726955  .00007619  00000+0  49616-3 0  9997
2 52278  53.2173 321.5020 0001814  70.7004 289.4184 15.08847596111598
STARLINK-3764           
1 52280U 22041V   24110.82622514  .00013202  00000+0  84550-3 0  9996
2 52280  53.2166 321.5512 0001510  81.9741 278.1422 15.08863890111599
